NORAD_CAT_ID,OBJECT_NAME,OBJECT_TYPE,EPOCH,MEAN_MOTION,ECCENTRICITY,INCLINATION,RA_OF_ASC_NODE,ARG_OF_PERICENTER,MEAN_ANOMALY,BSTAR,MEAN_MOTION_DOT,MEAN_MOTION_DDOT,TLE_LINE0,TLE_LINE1,TLE_LINE2,SEMIMAJOR_AXIS,PERIOD,APOGEE,PERIGEE,DECAYED
49766.0,STARLINK-3190,PAYLOAD,2024-07-17 12:28:37,15.08836271,0.0001039,53.2167,313.4006,94.7366,265.3745,0.0010536,0.00016518,0.0,0 STARLINK-3190,1 49766U 21115AU  24199.51987950  .00016518  00000-0  10536-2 0  9999,2 49766  53.2167 313.4006 0001039  94.7366 265.3745 15.08836271146186,6917.892,95.438,540.476,539.038,0.0
49766.0,STARLINK-3190,PAYLOAD,2024-07-17 14:04:00,15.08834841,0.0001204,53.2167,313.1023,104.4876,255.6249,0.0012101,0.0001902,0.0,0 STARLINK-3190,1 49766U 21115AU  24199.58612044  .00019020  00000-0  12101-2 0  9996,2 49766  53.2167 313.1023 0001204 104.4876 255.6249 15.08834841145081,6917.896,95.438,540.594,538.928,0.0
49766.0,STARLINK-3190,PAYLOAD,2024-07-18 13:54:48,15.08847399,0.0001258,53.2179,308.6393,91.7417,268.3719,0.00053384,8.22e-05,0.0,0 STARLINK-3190,1 49766U 21115AU  24200.57972225  .00008220  00000-0  53384-3 0  9997,2 49766  53.2179 308.6393 0001258  91.7417 268.3719 15.08847399146346,6917.858,95.437,540.593,538.853,0.0
49766.0,STARLINK-3190,PAYLOAD,2024-07-19 13:45:35,15.08837038,0.0001346,53.2176,304.1766,113.5458,246.5676,7.4418e-05,8.97e-06,0.0,0 STARLINK-3190,1 49766U 21115AU  24201.57332275  .00000897  00000-0  74418-4 0  9997,2 49766  53.2176 304.1766 0001346 113.5458 246.5676 15.08837038146499,6917.889,95.438,540.686,538.823,0.0
49766.0,STARLINK-3190,PAYLOAD,2024-07-20 13:36:22,15.08832147,0.0001286,53.2182,299.7248,93.3888,266.7251,-1.8712e-06,-3.18e-06,0.0,0 STARLINK-3190,1 49766U 21115AU  24202.56692778 -.00000318  00000-0 -18712-5 0  9990,2 49766  53.2182 299.7248 0001286  93.3888 266.7251 15.08832147145538,6917.904,95.438,540.659,538.88,0.0
49766.0,STARLINK-3190,PAYLOAD,2024-07-20 23:08:40,15.08852788,0.0001269,53.2176,297.9351,87.7981,272.3157,0.00019699,2.85e-05,0.0,0 STARLINK-3190,1 49766U 21115AU  24202.96435660  .00002850  00000-0  19699-3 0  9993,2 49766  53.2176 297.9351 0001269  87.7981 272.3157 15.08852788146709,6917.841,95.437,540.584,538.828,0.0
49766.0,STARLINK-3190,PAYLOAD,2024-07-21 11:51:46,15.08826181,0.0002189,53.2196,295.5649,121.0095,239.1113,1.3908e-05,-6.7e-07,0.0,0 STARLINK-3190,1 49766U 21115AU  24203.49429369 -.00000067  00000-0  13908-4 0  9998,2 49766  53.2196 295.5649 0002189 121.0095 239.1113 15.08826181146784,6917.923,95.438,541.302,538.273,0.0
49766.0,STARLINK-3190,PAYLOAD,2024-07-22 05:21:01,15.08840027,0.0001706,53.2195,292.2902,103.8834,256.2348,0.00028151,4.195e-05,0.0,0 STARLINK-3190,1 49766U 21115AU  24204.22292957  .00004195  00000-0  28151-3 0  9991,2 49766  53.2195 292.2902 0001706 103.8834 256.2348 15.08840027146899,6917.88,95.438,540.925,538.565,0.0
49766.0,STARLINK-3190,PAYLOAD,2024-07-22 14:53:19,15.08847779,0.0001635,53.2182,290.5029,96.8192,263.2986,0.000336,5.065e-05,0.0,0 STARLINK-3190,1 49766U 21115AU  24204.62036825  .00005065  00000-0  33600-3 0  9997,2 49766  53.2182 290.5029 0001635  96.8192 263.2986 15.08847779145846,6917.857,95.437,540.853,538.591,0.0
49766.0,STARLINK-3190,PAYLOAD,2024-07-23 09:57:57,15.08843813,0.0001843,53.2181,286.9338,119.1457,240.9719,0.00023644,3.477e-05,0.0,0 STARLINK-3190,1 49766U 21115AU  24205.41524833  .00003477  00000-0  23644-3 0  9998,2 49766  53.2181 286.9338 0001843 119.1457 240.9719 15.08843813147079,6917.869,95.437,541.009,538.459,0.0
49766.0,STARLINK-3190,PAYLOAD,2024-07-24 05:02:35,15.08839753,0.0001913,53.2164,283.365,122.497,237.6207,3.4103e-05,2.55e-06,0.0,0 STARLINK-3190,1 49766U 21115AU  24206.21012954  .00000255  00000-0  34103-4 0  9997,2 49766  53.2164 283.3650 0001913 122.4970 237.6207 15.08839753147199,6917.881,95.438,541.07,538.423,0.0
49766.0,STARLINK-3190,PAYLOAD,2024-07-24 14:34:54,15.08838316,0.0001836,53.2166,281.5803,123.2151,236.9017,7.9859e-06,-1.61e-06,0.0,0 STARLINK-3190,1 49766U 21115AU  24206.60757191 -.00000161  00000-0  79859-5 0  9994,2 49766  53.2166 281.5803 0001836 123.2151 236.9017 15.08838316146144,6917.886,95.438,541.021,538.48,0.0
49766.0,STARLINK-3190,PAYLOAD,2024-07-24 19:21:02,15.08854935,0.0001212,53.218,280.6893,109.7334,250.3789,-1.0138e-05,-4.49e-06,0.0,0 STARLINK-3190,1 49766U 21115AU  24206.80628402 -.00000449  00000-0 -10138-4 0  9992,2 49766  53.2180 280.6893 0001212 109.7334 250.3789 15.08854935146173,6917.835,95.437,540.538,538.861,0.0
49766.0,STARLINK-3190,PAYLOAD,2024-07-25 03:17:59,15.08844767,0.000121,53.218,279.2036,90.5718,269.5413,0.00010063,1.314e-05,0.0,0 STARLINK-3190,1 49766U 21115AU  24207.13748908  .00001314  00000-0  10063-3 0  9999,2 49766  53.2180 279.2036 0001210  90.5718 269.5413 15.08844767146221,6917.866,95.437,540.568,538.894,0.0
49766.0,STARLINK-3190,PAYLOAD,2024-07-25 09:39:31,15.08841685,0.0001268,53.2177,278.0151,85.8082,274.3055,0.00014361,1.999e-05,0.0,0 STARLINK-3190,1 49766U 21115AU  24207.40245034  .00001999  00000-0  14361-3 0  9995,2 49766  53.2177 278.0151 0001268  85.8082 274.3055 15.08841685147375,6917.875,95.437,540.617,538.863,0.0
49766.0,STARLINK-3190,PAYLOAD,2024-07-25 14:25:40,15.08847742,0.0001329,53.2171,277.1216,91.4257,268.6887,0.00017999,2.578e-05,0.0,0 STARLINK-3190,1 49766U 21115AU  24207.60116517  .00002578  00000-0  17999-3 0  9994,2 49766  53.2171 277.1216 0001329  91.4257 268.6887 15.08847742146295,6917.857,95.437,540.641,538.802,0.0
49766.0,STARLINK-3190,PAYLOAD,2024-07-26 12:41:04,15.08838544,0.0001085,53.217,272.9563,104.4205,255.6908,0.00015552,2.188e-05,0.0,0 STARLINK-3190,1 49766U 21115AU  24208.52852711  .00002188  00000-0  15552-3 0  9999,2 49766  53.2170 272.9563 0001085 104.4205 255.6908 15.08838544146435,6917.885,95.438,540.5,538.999,0.0
49766.0,STARLINK-3190,PAYLOAD,2024-07-27 09:21:05,15.08836473,0.0001459,53.2172,269.0892,103.161,256.9545,-2.0032e-05,-6.07e-06,0.0,0 STARLINK-3190,1 49766U 21115AU  24209.38965214 -.00000607  00000-0 -20032-4 0  9993,2 49766  53.2172 269.0892 0001459 103.1610 256.9545 15.08836473147677,6917.891,95.438,540.765,538.747,0.0
49766.0,STARLINK-3190,PAYLOAD,2024-07-27 14:07:15,15.08833612,0.0001436,53.2173,268.1977,101.6463,258.4691,-4.6857e-05,-1.033e-05,0.0,0 STARLINK-3190,1 49766U 21115AU  24209.58837524 -.00001033  00000-0 -46857-4 0  9994,2 49766  53.2173 268.1977 0001436 101.6463 258.4691 15.08833612146597,6917.9,95.438,540.758,538.772,0.0
49766.0,STARLINK-3190,PAYLOAD,2024-07-28 10:47:15,15.08839309,0.0001329,53.216,264.3351,99.164,260.9502,4.9029e-05,4.92e-06,0.0,0 STARLINK-3190,1 49766U 21115AU  24210.44949005  .00000492  00000-0  49029-4 0  9999,2 49766  53.2160 264.3351 0001329  99.1640 260.9502 15.08839309147832,6917.883,95.438,540.667,538.828,0.0
49766.0,STARLINK-3190,PAYLOAD,2024-07-28 15:33:25,15.08841188,0.0001318,53.2159,263.4421,98.7712,261.343,5.6981e-05,6.19e-06,0.0,0 STARLINK-3190,1 49766U 21115AU  24210.64820849  .00000619  00000-0  56981-4 0  9991,2 49766  53.2159 263.4421 0001318  98.7712 261.3430 15.08841188146754,6917.877,95.437,540.654,538.83,0.0
49766.0,STARLINK-3190,PAYLOAD,2024-07-29 09:02:40,15.08832184,0.0001355,53.216,260.1711,86.6316,273.4831,6.8176e-05,7.97e-06,0.0,0 STARLINK-3190,1 49766U 21115AU  24211.37685674  .00000797  00000-0  68176-4 0  9993,2 49766  53.2160 260.1711 0001355  86.6316 273.4831 15.08832184147979,6917.904,95.438,540.707,538.832,0.0
49766.0,STARLINK-3190,PAYLOAD,2024-07-29 13:48:49,15.08834548,0.0001365,53.2159,259.2789,86.5124,273.6024,8.4983e-05,1.065e-05,0.0,0 STARLINK-3190,1 49766U 21115AU  24211.57557588  .00001065  00000-0  84983-4 0  9990,2 49766  53.2159 259.2789 0001365  86.5124 273.6024 15.08834548146890,6917.897,95.438,540.706,538.818,0.0
49766.0,STARLINK-3190,PAYLOAD,2024-07-29 20:10:21,15.08840613,0.000143,53.2165,258.09,83.487,276.6285,0.00011459,1.536e-05,0.0,0 STARLINK-3190,1 49766U 21115AU  24211.84053197  .00001536  00000-0  11459-3 0  9997,2 49766  53.2165 258.0900 0001430  83.4870 276.6285 15.08840613148047,6917.879,95.438,540.733,538.754,0.0
49766.0,STARLINK-3190,PAYLOAD,2024-07-30 12:04:13,15.088421,0.0001582,53.2174,255.1144,83.213,276.9042,9.8496e-05,1.28e-05,0.0,0 STARLINK-3190,1 49766U 21115AU  24212.50293261  .00001280  00000-0  98496-4 0  9992,2 49766  53.2174 255.1144 0001582  83.2130 276.9042 15.08842100147035,6917.874,95.437,540.833,538.645,0.0
49766.0,STARLINK-3190,PAYLOAD,2024-07-31 11:54:59,15.08844771,0.0001257,53.2152,250.6542,95.0067,265.1069,0.00011058,1.473e-05,0.0,0 STARLINK-3190,1 49766U 21115AU  24213.49652774  .00001473  00000-0  11058-3 0  9991,2 49766  53.2152 250.6542 0001257  95.0067 265.1069 15.08844771148296,6917.866,95.437,540.6,538.861,0.0
49766.0,STARLINK-3190,PAYLOAD,2024-07-31 19:51:55,15.08850548,0.0001498,53.217,249.1705,77.4702,282.6457,0.00010453,1.376e-05,0.0,0 STARLINK-3190,1 49766U 21115AU  24213.82772426  .00001376  00000-0  10453-3 0  9995,2 49766  53.2170 249.1705 0001498  77.4702 282.6457 15.08850548147234,6917.848,95.437,540.749,538.677,0.0
49766.0,STARLINK-3190,PAYLOAD,2024-08-01 11:45:47,15.08843124,0.0001438,53.2163,246.1949,101.4466,258.6687,1.6259e-05,-2.9e-07,0.0,0 STARLINK-3190,1 49766U 21115AU  24214.49013057 -.00000029  00000-0  16259-4 0  9993,2 49766  53.2163 246.1949 0001438 101.4466 258.6687 15.08843124148446,6917.871,95.437,540.731,538.741,0.0
49766.0,STARLINK-3190,PAYLOAD,2024-08-01 19:42:42,15.08843622,0.0001388,53.2163,244.7072,96.8093,263.3057,1.9825e-05,2.8e-07,0.0,0 STARLINK-3190,1 49766U 21115AU  24214.82132947  .00000028  00000-0  19825-4 0  9990,2 49766  53.2163 244.7072 0001388  96.8093 263.3057 15.08843622147383,6917.869,95.437,540.695,538.774,0.0
49766.0,STARLINK-3190,PAYLOAD,2024-08-02 11:36:34,15.08840304,0.0001608,53.2177,241.7329,98.561,261.5565,-1.9398e-06,-3.19e-06,0.0,0 STARLINK-3190,1 49766U 21115AU  24215.48373387 -.00000319  00000-0 -19398-5 0  9999,2 49766  53.2177 241.7329 0001608  98.5610 261.5565 15.08840304147488,6917.879,95.438,540.857,538.632,0.0
